STARLINK-2065
1 47672U 21012BE  26092.83335647  .00265051  00000+0  16838-2 0  9996
2 47672  53.1489 249.5813 0001934  74.1400 136.0844 15.75181059  5905
